{
  "type": "FeatureCollection",
  "features": [
    {
      "type": "Feature",
      "properties": {
        "norad_id": 50032,
        "name": "COSMOS 1408 DEB",
        "group": "cosmos-1408-debris",
        "lat": 56.48312362871851,
        "lon": 73.07961401499641,
        "alt_km": 433.88211147243965,
        "timestamp": "2025-12-09T14:52:26.432243+00:00",
        "meta_object_name": "COSMOS 1408 DEB",
        "meta_object_id": "1982-092RU",
        "meta_epoch": "2025-12-09T06:51:27.931680",
        "meta_mean_motion": 15.45639861,
        "meta_eccentricity": 0.00149547,
        "meta_inclination": 82.5641,
        "meta_ra_of_asc_node": 62.0486,
        "meta_arg_of_pericenter": 221.8802,
        "meta_mean_anomaly": 138.1304,
        "meta_ephemeris_type": 0,
        "meta_classification_type": "U",
        "meta_norad_cat_id": 50032,
        "meta_element_set_no": 999,
        "meta_rev_at_epoch": 22550,
        "meta_bstar": 0.00015339361,
        "meta_mean_motion_dot": 7.459e-05,
        "meta_mean_motion_ddot": 0,
        "tle_line1": "1 50032U 82092RU  25343.28573995  .00007459  00000+0  15339-3 0  9994",
        "tle_line2": "2 50032  82.5641  62.0486 0014954 221.8802 138.1304 15.45639861225502"
      },
      "geometry": {
        "type": "Point",
        "coordinates": [
          73.07961401499641,
          56.48312362871851
        ]
      }
    },
    {
      "type": "Feature",
      "properties": {
        "norad_id": 50058,
        "name": "COSMOS 1408 DEB",
        "group": "cosmos-1408-debris",
        "lat": 53.172306417071354,
        "lon": 82.58338114248325,
        "alt_km": 365.51653503185935,
        "timestamp": "2025-12-09T14:52:26.432288+00:00",
        "meta_object_name": "COSMOS 1408 DEB",
        "meta_object_id": "1982-092SW",
        "meta_epoch": "2025-12-09T06:57:57.674304",
        "meta_mean_motion": 15.63783016,
        "meta_eccentricity": 0.00163848,
        "meta_inclination": 82.6128,
        "meta_ra_of_asc_node": 72.9508,
        "meta_arg_of_pericenter": 110.9292,
        "meta_mean_anomaly": 249.3723,
        "meta_ephemeris_type": 0,
        "meta_classification_type": "U",
        "meta_norad_cat_id": 50058,
        "meta_element_set_no": 999,
        "meta_rev_at_epoch": 22750,
        "meta_bstar": 0.0004021999,
        "meta_mean_motion_dot": 0.00037979,
        "meta_mean_motion_ddot": 0,
        "tle_line1": "1 50058U 82092SW  25343.29025086  .00037979  00000+0  40220-3 0  9993",
        "tle_line2": "2 50058  82.6128  72.9508 0016384 110.9292 249.3723 15.63783016227500"
      },
      "geometry": {
        "type": "Point",
        "coordinates": [
          82.58338114248325,
          53.172306417071354
        ]
      }
    },
    {
      "type": "Feature",
      "properties": {
        "norad_id": 50404,
        "name": "COSMOS 1408 DEB",
        "group": "cosmos-1408-debris",
        "lat": 11.05062061171674,
        "lon": -140.24063229491634,
        "alt_km": 641.7211280398278,
        "timestamp": "2025-12-09T14:52:26.432302+00:00",
        "meta_object_name": "COSMOS 1408 DEB",
        "meta_object_id": "1982-092ADS",
        "meta_epoch": "2025-12-09T02:07:31.133856",
        "meta_mean_motion": 15.1299152,
        "meta_eccentricity": 0.01734954,
        "meta_inclination": 82.2038,
        "meta_ra_of_asc_node": 218.7693,
        "meta_arg_of_pericenter": 211.4724,
        "meta_mean_anomaly": 147.6039,
        "meta_ephemeris_type": 0,
        "meta_classification_type": "U",
        "meta_norad_cat_id": 50404,
        "meta_element_set_no": 999,
        "meta_rev_at_epoch": 21138,
        "meta_bstar": 0.0031720673,
        "meta_mean_motion_dot": 0.00081978,
        "meta_mean_motion_ddot": 0,
        "tle_line1": "1 50404U 82092ADS 25343.08855479  .00081978  00000+0  31721-2 0  9995",
        "tle_line2": "2 50404  82.2038 218.7693 0173495 211.4724 147.6039 15.12991520211384"
      },
      "geometry": {
        "type": "Point",
        "coordinates": [
          -140.24063229491634,
          11.05062061171674
        ]
      }
    },
    {
      "type": "Feature",
      "properties": {
        "norad_id": 50621,
        "name": "COSMOS 1408 DEB",
        "group": "cosmos-1408-debris",
        "lat": 26.146154328451345,
        "lon": -106.24467802157191,
        "alt_km": 378.1201853515413,
        "timestamp": "2025-12-09T14:52:26.432315+00:00",
        "meta_object_name": "COSMOS 1408 DEB",
        "meta_object_id": "1982-092ALR",
        "meta_epoch": "2025-12-09T06:30:05.287392",
        "meta_mean_motion": 15.56380529,
        "meta_eccentricity": 0.00287463,
        "meta_inclination": 82.5697,
        "meta_ra_of_asc_node": 77.7916,
        "meta_arg_of_pericenter": 165.1376,
        "meta_mean_anomaly": 195.0731,
        "meta_ephemeris_type": 0,
        "meta_classification_type": "U",
        "meta_norad_cat_id": 50621,
        "meta_element_set_no": 999,
        "meta_rev_at_epoch": 22196,
        "meta_bstar": 0.00049840816,
        "meta_mean_motion_dot": 0.00035943,
        "meta_mean_motion_ddot": 0,
        "tle_line1": "1 50621U 82092ALR 25343.27089453  .00035943  00000+0  49841-3 0  9992",
        "tle_line2": "2 50621  82.5697  77.7916 0028746 165.1376 195.0731 15.56380529221966"
      },
      "geometry": {
        "type": "Point",
        "coordinates": [
          -106.24467802157191,
          26.146154328451345
        ]
      }
    }
  ]
}